{
  "type": "FeatureCollection",
  "features": [
    {
      "type": "Feature",
      "properties": {
        "norad_id": 44334,
        "name": "EUTELSAT 7C",
        "group": "eutelsat",
        "lat": 0.05185384535181739,
        "lon": -66.85506223726158,
        "alt_km": 35777.07979780859,
        "timestamp": "2025-12-13T13:34:34.745866+00:00",
        "meta_object_name": "EUTELSAT 7C",
        "meta_object_id": "2019-034B",
        "meta_epoch": "2025-12-12T20:21:46.603584",
        "meta_mean_motion": 1.00271857,
        "meta_eccentricity": 0.00032214,
        "meta_inclination": 0.0717,
        "meta_ra_of_asc_node": 176.4232,
        "meta_arg_of_pericenter": 67.4743,
        "meta_mean_anomaly": 150.3191,
        "meta_ephemeris_type": 0,
        "meta_classification_type": "U",
        "meta_norad_cat_id": 44334,
        "meta_element_set_no": 999,
        "meta_rev_at_epoch": 496,
        "meta_bstar": 0,
        "meta_mean_motion_dot": 6.1e-07,
        "meta_mean_motion_ddot": 0,
        "tle_line1": "1 44334U 19034B   25346.84845606  .00000061  00000+0  00000+0 0  9991",
        "tle_line2": "2 44334   0.0717 176.4232 0003221  67.4743 150.3191  1.00271857  4969"
      },
      "geometry": {
        "type": "Point",
        "coordinates": [
          -66.85506223726158,
          0.05185384535181739
        ]
      }
    },
    {
      "type": "Feature",
      "properties": {
        "norad_id": 44624,
        "name": "EUTELSAT 5 WEST B",
        "group": "eutelsat",
        "lat": -0.07317951050449327,
        "lon": -78.85528645289291,
        "alt_km": 35772.68607095129,
        "timestamp": "2025-12-13T13:34:34.745890+00:00",
        "meta_object_name": "EUTELSAT 5 WEST B",
        "meta_object_id": "2019-067A",
        "meta_epoch": "2025-12-12T23:43:43.133952",
        "meta_mean_motion": 1.00271982,
        "meta_eccentricity": 0.00033233,
        "meta_inclination": 0.0617,
        "meta_ra_of_asc_node": 349.9107,
        "meta_arg_of_pericenter": 272.7245,
        "meta_mean_anomaly": 170.221,
        "meta_ephemeris_type": 0,
        "meta_classification_type": "U",
        "meta_norad_cat_id": 44624,
        "meta_element_set_no": 999,
        "meta_rev_at_epoch": 2257,
        "meta_bstar": 0,
        "meta_mean_motion_dot": -2.9e-07,
        "meta_mean_motion_ddot": 0,
        "tle_line1": "1 44624U 19067A   25346.98869368 -.00000029  00000+0  00000+0 0  9990",
        "tle_line2": "2 44624   0.0617 349.9107 0003323 272.7245 170.2210  1.00271982 22578"
      },
      "geometry": {
        "type": "Point",
        "coordinates": [
          -78.85528645289291,
          -0.07317951050449327
        ]
      }
    },
    {
      "type": "Feature",
      "properties": {
        "norad_id": 45027,
        "name": "EUTELSAT KONNECT",
        "group": "eutelsat",
        "lat": -0.03489521832901885,
        "lon": -66.6495288904978,
        "alt_km": 35780.2244968504,
        "timestamp": "2025-12-13T13:34:34.745901+00:00",
        "meta_object_name": "EUTELSAT KONNECT",
        "meta_object_id": "2020-005B",
        "meta_epoch": "2025-12-12T13:30:55.955232",
        "meta_mean_motion": 1.00273737,
        "meta_eccentricity": 0.0001425,
        "meta_inclination": 0.0708,
        "meta_ra_of_asc_node": 97.134,
        "meta_arg_of_pericenter": 166.5481,
        "meta_mean_anomaly": 27.7604,
        "meta_ephemeris_type": 0,
        "meta_classification_type": "U",
        "meta_norad_cat_id": 45027,
        "meta_element_set_no": 999,
        "meta_rev_at_epoch": 2246,
        "meta_bstar": 0,
        "meta_mean_motion_dot": 6.1e-07,
        "meta_mean_motion_ddot": 0,
        "tle_line1": "1 45027U 20005B   25346.56314763  .00000061  00000+0  00000+0 0  9995",
        "tle_line2": "2 45027   0.0708  97.1340 0001425 166.5481  27.7604  1.00273737 22462"
      },
      "geometry": {
        "type": "Point",
        "coordinates": [
          -66.6495288904978,
          -0.03489521832901885
        ]
      }
    },
    {
      "type": "Feature",
      "properties": {
        "norad_id": 49056,
        "name": "EUTELSAT QUANTUM",
        "group": "eutelsat",
        "lat": -0.02093631458781041,
        "lon": -26.12681758325667,
        "alt_km": 35777.89277687925,
        "timestamp": "2025-12-13T13:34:34.745912+00:00",
        "meta_object_name": "EUTELSAT QUANTUM",
        "meta_object_id": "2021-069B",
        "meta_epoch": "2025-12-12T22:16:03.266976",
        "meta_mean_motion": 1.00272849,
        "meta_eccentricity": 0.00036095,
        "meta_inclination": 0.0229,
        "meta_ra_of_asc_node": 40.9329,
        "meta_arg_of_pericenter": 233.8595,
        "meta_mean_anomaly": 188.7902,
        "meta_ephemeris_type": 0,
        "meta_classification_type": "U",
        "meta_norad_cat_id": 49056,
        "meta_element_set_no": 999,
        "meta_rev_at_epoch": 1606,
        "meta_bstar": 0,
        "meta_mean_motion_dot": 1.38e-06,
        "meta_mean_motion_ddot": 0,
        "tle_line1": "1 49056U 21069B   25346.92781559  .00000138  00000+0  00000+0 0  9998",
        "tle_line2": "2 49056   0.0229  40.9329 0003609 233.8595 188.7902  1.00272849 16060"
      },
      "geometry": {
        "type": "Point",
        "coordinates": [
          -26.12681758325667,
          -0.02093631458781041
        ]
      }
    },
    {
      "type": "Feature",
      "properties": {
        "norad_id": 53765,
        "name": "EUTELSAT KONNECT VHTS",
        "group": "eutelsat",
        "lat": -0.02584811871613597,
        "lon": -71.1291628602656,
        "alt_km": 35779.207772979105,
        "timestamp": "2025-12-13T13:34:34.745922+00:00",
        "meta_object_name": "EUTELSAT KONNECT VHTS",
        "meta_object_id": "2022-110A",
        "meta_epoch": "2025-12-12T23:45:57.918816",
        "meta_mean_motion": 1.00271501,
        "meta_eccentricity": 0.00023835,
        "meta_inclination": 0.0657,
        "meta_ra_of_asc_node": 101.0037,
        "meta_arg_of_pericenter": 141.1037,
        "meta_mean_anomaly": 199.031,
        "meta_ephemeris_type": 0,
        "meta_classification_type": "U",
        "meta_norad_cat_id": 53765,
        "meta_element_set_no": 999,
        "meta_rev_at_epoch": 495,
        "meta_bstar": 0,
        "meta_mean_motion_dot": 3e-07,
        "meta_mean_motion_ddot": 0,
        "tle_line1": "1 53765U 22110A   25346.99025369  .00000030  00000+0  00000+0 0  9996",
        "tle_line2": "2 53765   0.0657 101.0037 0002383 141.1037 199.0310  1.00271501  4959"
      },
      "geometry": {
        "type": "Point",
        "coordinates": [
          -71.1291628602656,
          -0.02584811871613597
        ]
      }
    },
    {
      "type": "Feature",
      "properties": {
        "norad_id": 54048,
        "name": "EUTELSAT HOTBIRD 13F",
        "group": "eutelsat",
        "lat": -0.004738620848402869,
        "lon": -60.89679942138242,
        "alt_km": 35781.68563507332,
        "timestamp": "2025-12-13T13:34:34.745933+00:00",
        "meta_object_name": "EUTELSAT HOTBIRD 13F",
        "meta_object_id": "2022-134A",
        "meta_epoch": "2025-12-12T19:54:27.978336",
        "meta_mean_motion": 1.00269766,
        "meta_eccentricity": 0.00023058,
        "meta_inclination": 0.0458,
        "meta_ra_of_asc_node": 294.3302,
        "meta_arg_of_pericenter": 64.3051,
        "meta_mean_anomaly": 34.7496,
        "meta_ephemeris_type": 0,
        "meta_classification_type": "U",
        "meta_norad_cat_id": 54048,
        "meta_element_set_no": 999,
        "meta_rev_at_epoch": 1150,
        "meta_bstar": 0,
        "meta_mean_motion_dot": 9.9e-07,
        "meta_mean_motion_ddot": 0,
        "tle_line1": "1 54048U 22134A   25346.82949049  .00000099  00000+0  00000+0 0  9994",
        "tle_line2": "2 54048   0.0458 294.3302 0002305  64.3051  34.7496  1.00269766 11509"
      },
      "geometry": {
        "type": "Point",
        "coordinates": [
          -60.89679942138242,
          -0.004738620848402869
        ]
      }
    },
    {
      "type": "Feature",
      "properties": {
        "norad_id": 54225,
        "name": "EUTELSAT HOTBIRD 13G",
        "group": "eutelsat",
        "lat": 0.026524079481120857,
        "lon": -60.86210154380229,
        "alt_km": 35789.639986163675,
        "timestamp": "2025-12-13T13:34:34.745944+00:00",
        "meta_object_name": "EUTELSAT HOTBIRD 13G",
        "meta_object_id": "2022-146A",
        "meta_epoch": "2025-12-12T19:54:27.978336",
        "meta_mean_motion": 1.00271446,
        "meta_eccentricity": 0.00017929,
        "meta_inclination": 0.0469,
        "meta_ra_of_asc_node": 232.9168,
        "meta_arg_of_pericenter": 308.06,
        "meta_mean_anomaly": 212.3975,
        "meta_ephemeris_type": 0,
        "meta_classification_type": "U",
        "meta_norad_cat_id": 54225,
        "meta_element_set_no": 999,
        "meta_rev_at_epoch": 559,
        "meta_bstar": 0,
        "meta_mean_motion_dot": 9.9e-07,
        "meta_mean_motion_ddot": 0,
        "tle_line1": "1 54225U 22146A   25346.82949049  .00000099  00000+0  00000+0 0  9994",
        "tle_line2": "2 54225   0.0469 232.9168 0001792 308.0600 212.3975  1.00271446  5599"
      },
      "geometry": {
        "type": "Point",
        "coordinates": [
          -60.86210154380229,
          0.026524079481120857
        ]
      }
    }
  ]
}